{"fetched_at":"2026-03-29T02:12:04Z","count":15717,"tles":[{"name":"GSAT0221 (GALILEO 25)","line1":"1 43564U 18060A   26086.52972301 -.00000097  00000+0  00000+0 0  9993","line2":"2 43564  57.1946 343.9877 0004798 314.1453  45.8491  1.70475505 47776","category":"GPS"}]}